NORAD_CAT_ID,OBJECT_NAME,OBJECT_TYPE,EPOCH,MEAN_MOTION,ECCENTRICITY,INCLINATION,RA_OF_ASC_NODE,ARG_OF_PERICENTER,MEAN_ANOMALY,BSTAR,MEAN_MOTION_DOT,MEAN_MOTION_DDOT,TLE_LINE0,TLE_LINE1,TLE_LINE2,SEMIMAJOR_AXIS,PERIOD,APOGEE,PERIGEE,DECAYED
53425.0,STARLINK-4531,PAYLOAD,2023-02-09 21:45:05,15.08853094,0.0001229,53.2165,118.9824,91.0418,269.0715,3.4053e-05,2.54e-06,0.0,0 STARLINK-4531,1 53425U 22097AP  23040.90631509  .00000254  00000-0  34053-4 0  9991,2 53425  53.2165 118.9824 0001229  91.0418 269.0715 15.08853094 28961,6917.84,95.437,540.556,538.855,0.0
53425.0,STARLINK-4531,PAYLOAD,2023-02-10 04:06:39,15.08833668,0.0001131,53.2167,117.7922,123.2772,236.8328,-1.598e-05,-5.42e-06,0.0,0 STARLINK-4531,1 53425U 22097AP  23041.17129249 -.00000542  00000-0 -15980-4 0  9994,2 53425  53.2167 117.7922 0001131 123.2772 236.8328 15.08833668 29005,6917.9,95.438,540.547,538.982,0.0
53425.0,STARLINK-4531,PAYLOAD,2023-02-10 10:28:12,15.08836942,0.0001122,53.2156,116.6058,101.4703,258.6415,2.6246e-05,1.3e-06,0.0,0 STARLINK-4531,1 53425U 22097AP  23041.43625062  .00000130  00000-0  26246-4 0  9995,2 53425  53.2156 116.6058 0001122 101.4703 258.6415 15.08836942 28593,6917.89,95.438,540.531,538.979,0.0
53425.0,STARLINK-4531,PAYLOAD,2023-02-10 21:35:54,15.08836378,0.0001267,53.2155,114.5244,72.6905,287.4226,3.4445e-05,2.6e-06,0.0,0 STARLINK-4531,1 53425U 22097AP  23041.89993368  .00000260  00000-0  34445-4 0  9996,2 53425  53.2155 114.5244 0001267  72.6905 287.4226 15.08836378 29111,6917.891,95.438,540.633,538.88,0.0
53425.0,STARLINK-4531,PAYLOAD,2023-02-11 21:26:41,15.08844641,0.0001016,53.2161,110.0636,113.2926,246.8173,-1.1609e-05,-4.73e-06,0.0,0 STARLINK-4531,1 53425U 22097AP  23042.89353055 -.00000473  00000-0 -11609-4 0  9995,2 53425  53.2161 110.0636 0001016 113.2926 246.8173 15.08844641 28819,6917.866,95.437,540.434,539.028,0.0
53425.0,STARLINK-4531,PAYLOAD,2023-02-12 06:59:00,15.08825677,0.0001429,53.2148,108.2809,106.3784,253.7365,0.00012116,1.64e-05,0.0,0 STARLINK-4531,1 53425U 22097AP  23043.29098279  .00001640  00000-0  12116-3 0  9992,2 53425  53.2148 108.2809 0001429 106.3784 253.7365 15.08825677 28872,6917.924,95.438,540.778,538.801,0.0
53425.0,STARLINK-4531,PAYLOAD,2023-02-12 13:20:32,15.08849553,0.0001219,53.2157,107.0904,105.1423,254.9704,0.0001712,2.439e-05,0.0,0 STARLINK-4531,1 53425U 22097AP  23043.55592679  .00002439  00000-0  17120-3 0  9991,2 53425  53.2157 107.0904 0001219 105.1423 254.9704 15.08849553 28913,6917.851,95.437,540.559,538.873,0.0
53425.0,STARLINK-4531,PAYLOAD,2023-02-13 03:39:03,15.08811882,0.0001348,53.2175,104.414,109.6692,250.4445,-0.00010939,-2.027e-05,0.0,0 STARLINK-4531,1 53425U 22097AP  23044.15212538 -.00002027  00000-0 -10939-3 0  9997,2 53425  53.2175 104.4140 0001348 109.6692 250.4445 15.08811882 29004,6917.966,95.439,540.764,538.899,0.0
53425.0,STARLINK-4531,PAYLOAD,2023-02-13 13:11:22,15.08824554,0.0001425,53.2149,102.6324,102.6118,257.5033,-0.00015326,-2.725e-05,0.0,0 STARLINK-4531,1 53425U 22097AP  23044.54956393 -.00002725  00000-0 -15326-3 0  9994,2 53425  53.2149 102.6324 0001425 102.6118 257.5033 15.08824554 29068,6917.928,95.439,540.778,538.807,0.0
53425.0,STARLINK-4531,PAYLOAD,2023-02-14 00:19:02,15.08833141,8.28e-05,53.2177,100.5474,118.8209,241.2866,0.00026422,3.919e-05,0.0,0 STARLINK-4531,1 53425U 22097AP  23045.01322752  .00003919  00000-0  26422-3 0  9996,2 53425  53.2177 100.5474 0000828 118.8209 241.2866 15.08833141 29132,6917.901,95.438,540.339,539.194,0.0
53425.0,STARLINK-4531,PAYLOAD,2023-02-14 09:51:19,15.08866463,0.0001291,53.2156,98.7633,107.0846,253.0288,0.00042496,6.487e-05,0.0,0 STARLINK-4531,1 53425U 22097AP  23045.41064695  .00006487  00000-0  42496-3 0  9991,2 53425  53.2156  98.7633 0001291 107.0846 253.0288 15.08866463 29194,6917.8,95.436,540.558,538.771,0.0
53425.0,STARLINK-4531,PAYLOAD,2023-02-15 06:31:22,15.08836768,0.0001121,53.2157,94.8957,101.8319,258.2799,0.00026359,3.909e-05,0.0,0 STARLINK-4531,1 53425U 22097AP  23046.27178754  .00003909  00000-0  26359-3 0  9994,2 53425  53.2157  94.8957 0001121 101.8319 258.2799 15.08836768 29324,6917.89,95.438,540.531,538.98,0.0
53425.0,STARLINK-4531,PAYLOAD,2023-02-15 12:52:54,15.08854396,0.0001322,53.2154,93.7044,77.2398,282.8742,0.00026701,3.966e-05,0.0,0 STARLINK-4531,1 53425U 22097AP  23046.53673958  .00003966  00000-0  26701-3 0  9993,2 53425  53.2154  93.7044 0001322  77.2398 282.8742 15.08854396 29364,6917.836,95.437,540.616,538.787,0.0
53425.0,STARLINK-4531,PAYLOAD,2023-02-16 09:32:53,15.08873202,0.0001282,53.2157,89.84,97.9124,262.2014,0.0002141,3.124e-05,0.0,0 STARLINK-4531,1 53425U 22097AP  23047.39783859  .00003124  00000-0  21410-3 0  9998,2 53425  53.2157  89.8400 0001282  97.9124 262.2014 15.08873202 29495,6917.779,95.435,540.531,538.757,0.0
53425.0,STARLINK-4531,PAYLOAD,2023-02-17 04:37:33,15.08816934,9.81e-05,53.2164,86.2731,77.0889,283.0213,-0.00040701,-6.755e-05,0.0,0 STARLINK-4531,1 53425U 22097AP  23048.19274316 -.00006755  00000-0 -40701-3 0  9999,2 53425  53.2164  86.2731 0000981  77.0889 283.0213 15.08816934 29618,6917.951,95.439,540.495,539.137,0.0
53425.0,STARLINK-4531,PAYLOAD,2023-02-17 09:23:42,15.08819672,9.45e-05,53.215,85.3826,94.2958,265.8142,-0.00031926,-5.362e-05,0.0,0 STARLINK-4531,1 53425U 22097AP  23048.39146371 -.00005362  00000-0 -31926-3 0  9992,2 53425  53.2150  85.3826 0000945  94.2958 265.8142 15.08819672 30091,6917.943,95.439,540.461,539.154,0.0
53425.0,STARLINK-4531,PAYLOAD,2023-02-17 18:56:01,15.08825733,9.04e-05,53.2153,83.5974,93.9852,266.1243,-0.00014594,-2.609e-05,0.0,0 STARLINK-4531,1 53425U 22097AP  23048.78890505 -.00002609  00000-0 -14594-3 0  9993,2 53425  53.2153  83.5974 0000904  93.9852 266.1243 15.08825733 29709,6917.924,95.438,540.414,539.164,0.0
53425.0,STARLINK-4531,PAYLOAD,2023-02-18 09:14:30,15.08831024,8.55e-05,53.2149,80.9224,107.4434,252.6651,0.0003305,4.975e-05,0.0,0 STARLINK-4531,1 53425U 22097AP  23049.38507155  .00004975  00000-0  33050-3 0  9990,2 53425  53.2149  80.9224 0000855 107.4434 252.6651 15.08831024 30249,6917.908,95.438,540.364,539.181,0.0
53425.0,STARLINK-4531,PAYLOAD,2023-02-18 18:46:49,15.0883986,8.27e-05,53.2147,79.1379,107.6877,252.4205,0.00062388,9.655e-05,0.0,0 STARLINK-4531,1 53425U 22097AP  23049.78251377  .00009655  00000-0  62388-3 0  9992,2 53425  53.2147  79.1379 0000827 107.6877 252.4205 15.08839860 29854,6917.881,95.438,540.318,539.174,0.0
53425.0,STARLINK-4531,PAYLOAD,2023-02-19 10:40:39,15.0886551,8.69e-05,53.2142,76.1644,110.9065,249.2021,0.00094959,0.00014868,0.0,0 STARLINK-4531,1 53425U 22097AP  23050.44490616  .00014868  00000-0  94959-3 0  9999,2 53425  53.2142  76.1644 0000869 110.9065 249.2021 15.08865510 29955,6917.802,95.436,540.269,539.066,0.0
53425.0,STARLINK-4531,PAYLOAD,2023-02-20 08:56:03,15.08851552,0.0001091,53.2141,71.9998,125.2625,234.8469,0.00018427,2.647e-05,0.0,0 STARLINK-4531,1 53425U 22097AP  23051.37226247  .00002647  00000-0  18427-3 0  9997,2 53425  53.2141  71.9998 0001091 125.2625 234.8469 15.08851552 30092,6917.845,95.437,540.465,538.955,0.0
53425.0,STARLINK-4531,PAYLOAD,2023-02-20 10:31:26,15.08855114,0.0001098,53.2149,71.7025,124.3158,235.7939,0.00026857,3.991e-05,0.0,0 STARLINK-4531,1 53425U 22097AP  23051.43850187  .00003991  00000-0  26857-3 0  9999,2 53425  53.2149  71.7025 0001098 124.3158 235.7939 15.08855114 30558,6917.834,95.437,540.459,538.94,0.0
53425.0,STARLINK-4531,PAYLOAD,2023-02-20 18:28:22,15.08840672,0.0001411,53.2142,70.2161,82.7518,277.3635,8.3144e-06,-1.56e-06,0.0,0 STARLINK-4531,1 53425U 22097AP  23051.76970575 -.00000156  00000-0  83144-5 0  9994,2 53425  53.2142  70.2161 0001411  82.7518 277.3635 15.08840672 30156,6917.878,95.438,540.719,538.767,0.0
53425.0,STARLINK-4531,PAYLOAD,2023-02-21 10:22:14,15.08841774,0.0001074,53.2146,67.239,101.0599,259.0514,0.00035219,5.322e-05,0.0,0 STARLINK-4531,1 53425U 22097AP  23052.43210675  .00005322  00000-0  35219-3 0  9994,2 53425  53.2146  67.2390 0001074 101.0599 259.0514 15.08841774 30707,6917.875,95.437,540.483,538.997,0.0
53425.0,STARLINK-4531,PAYLOAD,2023-02-21 18:19:09,15.08843881,0.0001164,53.2151,65.7535,88.7352,271.3773,0.00030315,4.541e-05,0.0,0 STARLINK-4531,1 53425U 22097AP  23052.76330725  .00004541  00000-0  30315-3 0  9993,2 53425  53.2151  65.7535 0001164  88.7352 271.3773 15.08843881 30755,6917.869,95.437,540.539,538.928,0.0
53425.0,STARLINK-4531,PAYLOAD,2023-02-22 00:40:42,15.08845247,0.0001363,53.2158,64.5625,93.6664,266.4484,0.00023691,3.485e-05,0.0,0 STARLINK-4531,1 53425U 22097AP  23053.02826763  .00003485  00000-0  23691-3 0  9990,2 53425  53.2158  64.5625 0001363  93.6664 266.4484 15.08845247 30348,6917.864,95.437,540.672,538.786,0.0
53425.0,STARLINK-4531,PAYLOAD,2023-02-22 11:48:23,15.08855509,0.0001429,53.2158,62.4811,93.4827,266.6329,0.00046043,7.05e-05,0.0,0 STARLINK-4531,1 53425U 22097AP  23053.49194289  .00007050  00000-0  46043-3 0  9990,2 53425  53.2158  62.4811 0001429  93.4827 266.6329 15.08855509 30863,6917.833,95.437,540.687,538.709,0.0
53425.0,STARLINK-4531,PAYLOAD,2023-02-22 18:09:56,15.08838241,0.0001026,53.2165,61.2931,98.0694,262.0414,3.2366e-05,2.27e-06,0.0,0 STARLINK-4531,1 53425U 22097AP  23053.75690718  .00000227  00000-0  32366-4 0  9990,2 53425  53.2165  61.2931 0001026  98.0694 262.0414 15.08838241 30451,6917.886,95.438,540.461,539.041,0.0
53425.0,STARLINK-4531,PAYLOAD,2023-02-23 10:03:48,15.08846209,0.0001303,53.2154,58.3191,100.3215,259.7924,0.00023775,3.499e-05,0.0,0 STARLINK-4531,1 53425U 22097AP  23054.41930687  .00003499  00000-0  23775-3 0  9993,2 53425  53.2154  58.3191 0001303 100.3215 259.7924 15.08846209 31002,6917.861,95.437,540.628,538.825,0.0
53425.0,STARLINK-4531,PAYLOAD,2023-02-23 19:36:07,15.08843045,0.0001314,53.2155,56.5346,102.5463,257.5676,0.00027644,4.115e-05,0.0,0 STARLINK-4531,1 53425U 22097AP  23054.81674842  .00004115  00000-0  27644-3 0  9990,2 53425  53.2155  56.5346 0001314 102.5463 257.5676 15.08843045 31067,6917.871,95.437,540.645,538.827,0.0
